[
    {
        "CCSDS_OMM_VERS": null,
        "CREATION_DATE": null,
        "ORIGINATOR": null,
        "OBJECT_NAME": null,
        "OBJECT_ID": "1988-109K",
        "CENTER_NAME": null,
        "REF_FRAME": null,
        "REF_FRAME_EPOCH": null,
        "TIME_SYSTEM": null,
        "MEAN_ELEMENT_THEORY": null,
        "COMMENT": null,
        "EPOCH": "2020-05-05T20:30:16.530Z",
        "SEMI_MAJOR_AXIS": null,
        "MEAN_MOTION": 2.29514339,
        "ECCENTRICITY": 0.7177804,
        "INCLINATION": 7.2217,
        "RA_OF_ASC_NODE": 37.6185,
        "ARG_OF_PERICENTER": 118.0122,
        "MEAN_ANOMALY": 329.9974,
        "GM": null,
        "MASS": null,
        "SOLAR_RAD_AREA": null,
        "SOLAR_RAD_COEFF": null,
        "DRAG_AREA": null,
        "DRAG_COEFF": null,
        "EPHEMERIS_TYPE": 0,
        "CLASSIFICATION_TYPE": "U",
        "NORAD_CAT_ID": 25543,
        "ELEMENT_SET_NO": 999,
        "REV_AT_EPOCH": 18525,
        "BSTAR": 0.00035879,
        "MEAN_MOTION_DOT": 0.00000055,
        "MEAN_MOTION_DDOT": 0,
        "COV_REF_FRAME": null,
        "CX_X": null,
        "CY_X": null,
        "CY_Y": null,
        "CZ_X": null,
        "CZ_Y": null,
        "CZ_Z": null,
        "CX_DOT_X": null,
        "CX_DOT_Y": null,
        "CX_DOT_Z": null,
        "CX_DOT_X_DOT": null,
        "CY_DOT_X": null,
        "CY_DOT_Y": null,
        "CY_DOT_Z": null,
        "CY_DOT_X_DOT": null,
        "CY_DOT_Y_DOT": null,
        "CZ_DOT_X": null,
        "CZ_DOT_Y": null,
        "CZ_DOT_Z": null,
        "CZ_DOT_X_DOT": null,
        "CZ_DOT_Y_DOT": null,
        "CZ_DOT_Z_DOT": null,
        "USER_DEFINED_BIP_0044_TYPE": null,
        "USER_DEFINED_OBJECT_DESIGNATOR": null,
        "USER_DEFINED_EARTH_MODEL": null,
        "USER_DEFINED_EPOCH_TIMESTAMP": null,
        "USER_DEFINED_MICROSECONDS": null
    },
    {
        "CCSDS_OMM_VERS": null,
        "CREATION_DATE": null,
        "ORIGINATOR": null,
        "OBJECT_NAME": null,
        "OBJECT_ID": "1998-067A",
        "CENTER_NAME": null,
        "REF_FRAME": null,
        "REF_FRAME_EPOCH": null,
        "TIME_SYSTEM": null,
        "MEAN_ELEMENT_THEORY": null,
        "COMMENT": null,
        "EPOCH": "2020-05-06T08:54:46.291Z",
        "SEMI_MAJOR_AXIS": null,
        "MEAN_MOTION": 15.49351388,
        "ECCENTRICITY": 0.0001025,
        "INCLINATION": 51.6447,
        "RA_OF_ASC_NODE": 195.4314,
        "ARG_OF_PERICENTER": 241.6743,
        "MEAN_ANOMALY": 215.3876,
        "GM": null,
        "MASS": null,
        "SOLAR_RAD_AREA": null,
        "SOLAR_RAD_COEFF": null,
        "DRAG_AREA": null,
        "DRAG_COEFF": null,
        "EPHEMERIS_TYPE": 0,
        "CLASSIFICATION_TYPE": "U",
        "NORAD_CAT_ID": 25544,
        "ELEMENT_SET_NO": 999,
        "REV_AT_EPOCH": 22553,
        "BSTAR": 0.000023178,
        "MEAN_MOTION_DOT": 0.00000843,
        "MEAN_MOTION_DDOT": 0,
        "COV_REF_FRAME": null,
        "CX_X": null,
        "CY_X": null,
        "CY_Y": null,
        "CZ_X": null,
        "CZ_Y": null,
        "CZ_Z": null,
        "CX_DOT_X": null,
        "CX_DOT_Y": null,
        "CX_DOT_Z": null,
        "CX_DOT_X_DOT": null,
        "CY_DOT_X": null,
        "CY_DOT_Y": null,
        "CY_DOT_Z": null,
        "CY_DOT_X_DOT": null,
        "CY_DOT_Y_DOT": null,
        "CZ_DOT_X": null,
        "CZ_DOT_Y": null,
        "CZ_DOT_Z": null,
        "CZ_DOT_X_DOT": null,
        "CZ_DOT_Y_DOT": null,
        "CZ_DOT_Z_DOT": null,
        "USER_DEFINED_BIP_0044_TYPE": null,
        "USER_DEFINED_OBJECT_DESIGNATOR": null,
        "USER_DEFINED_EARTH_MODEL": null,
        "USER_DEFINED_EPOCH_TIMESTAMP": null,
        "USER_DEFINED_MICROSECONDS": null
    },
    {
        "CCSDS_OMM_VERS": null,
        "CREATION_DATE": null,
        "ORIGINATOR": null,
        "OBJECT_NAME": null,
        "OBJECT_ID": "1998-068A",
        "CENTER_NAME": null,
        "REF_FRAME": null,
        "REF_FRAME_EPOCH": null,
        "TIME_SYSTEM": null,
        "MEAN_ELEMENT_THEORY": null,
        "COMMENT": null,
        "EPOCH": "2020-05-05T19:47:33.179Z",
        "SEMI_MAJOR_AXIS": null,
        "MEAN_MOTION": 0.99035776,
        "ECCENTRICITY": 0.0008091,
        "INCLINATION": 6.2515,
        "RA_OF_ASC_NODE": 62.1561,
        "ARG_OF_PERICENTER": 322.9221,
        "MEAN_ANOMALY": 39.206,
        "GM": null,
        "MASS": null,
        "SOLAR_RAD_AREA": null,
        "SOLAR_RAD_COEFF": null,
        "DRAG_AREA": null,
        "DRAG_COEFF": null,
        "EPHEMERIS_TYPE": 0,
        "CLASSIFICATION_TYPE": "U",
        "NORAD_CAT_ID": 25546,
        "ELEMENT_SET_NO": 999,
        "REV_AT_EPOCH": 7842,
        "BSTAR": 0,
        "MEAN_MOTION_DOT": -0.00000008,
        "MEAN_MOTION_DDOT": 0,
        "COV_REF_FRAME": null,
        "CX_X": null,
        "CY_X": null,
        "CY_Y": null,
        "CZ_X": null,
        "CZ_Y": null,
        "CZ_Z": null,
        "CX_DOT_X": null,
        "CX_DOT_Y": null,
        "CX_DOT_Z": null,
        "CX_DOT_X_DOT": null,
        "CY_DOT_X": null,
        "CY_DOT_Y": null,
        "CY_DOT_Z": null,
        "CY_DOT_X_DOT": null,
        "CY_DOT_Y_DOT": null,
        "CZ_DOT_X": null,
        "CZ_DOT_Y": null,
        "CZ_DOT_Z": null,
        "CZ_DOT_X_DOT": null,
        "CZ_DOT_Y_DOT": null,
        "CZ_DOT_Z_DOT": null,
        "USER_DEFINED_BIP_0044_TYPE": null,
        "USER_DEFINED_OBJECT_DESIGNATOR": null,
        "USER_DEFINED_EARTH_MODEL": null,
        "USER_DEFINED_EPOCH_TIMESTAMP": null,
        "USER_DEFINED_MICROSECONDS": null
    },
    {
        "CCSDS_OMM_VERS": null,
        "CREATION_DATE": null,
        "ORIGINATOR": null,
        "OBJECT_NAME": null,
        "OBJECT_ID": "1998-068C",
        "CENTER_NAME": null,
        "REF_FRAME": null,
        "REF_FRAME_EPOCH": null,
        "TIME_SYSTEM": null,
        "MEAN_ELEMENT_THEORY": null,
        "COMMENT": null,
        "EPOCH": "2020-05-05T10:24:45.193Z",
        "SEMI_MAJOR_AXIS": null,
        "MEAN_MOTION": 2.1516345,
        "ECCENTRICITY": 0.6991863,
        "INCLINATION": 19.4984,
        "RA_OF_ASC_NODE": 123.6309,
        "ARG_OF_PERICENTER": 146.506,
        "MEAN_ANOMALY": 289.27,
        "GM": null,
        "MASS": null,
        "SOLAR_RAD_AREA": null,
        "SOLAR_RAD_COEFF": null,
        "DRAG_AREA": null,
        "DRAG_COEFF": null,
        "EPHEMERIS_TYPE": 0,
        "CLASSIFICATION_TYPE": "U",
        "NORAD_CAT_ID": 25548,
        "ELEMENT_SET_NO": 999,
        "REV_AT_EPOCH": 16867,
        "BSTAR": 0,
        "MEAN_MOTION_DOT": -0.00000068,
        "MEAN_MOTION_DDOT": 0,
        "COV_REF_FRAME": null,
        "CX_X": null,
        "CY_X": null,
        "CY_Y": null,
        "CZ_X": null,
        "CZ_Y": null,
        "CZ_Z": null,
        "CX_DOT_X": null,
        "CX_DOT_Y": null,
        "CX_DOT_Z": null,
        "CX_DOT_X_DOT": null,
        "CY_DOT_X": null,
        "CY_DOT_Y": null,
        "CY_DOT_Z": null,
        "CY_DOT_X_DOT": null,
        "CY_DOT_Y_DOT": null,
        "CZ_DOT_X": null,
        "CZ_DOT_Y": null,
        "CZ_DOT_Z": null,
        "CZ_DOT_X_DOT": null,
        "CZ_DOT_Y_DOT": null,
        "CZ_DOT_Z_DOT": null,
        "USER_DEFINED_BIP_0044_TYPE": null,
        "USER_DEFINED_OBJECT_DESIGNATOR": null,
        "USER_DEFINED_EARTH_MODEL": null,
        "USER_DEFINED_EPOCH_TIMESTAMP": null,
        "USER_DEFINED_MICROSECONDS": null
    }
]